#dP2024 12 11 18  0  0.00000000      96 __u+U IGS20 EXT  IAC
## 2344 324000.00000000   900.00000000 60655 0.7500000000000
+   52   G02G03G04G05G06G07G08G09G10G11G12G13G14G15G16G17G18
+        G19G20G21G22G23G24G25G26G27G28G29G30G31G32R01R02R03
+        R04R05R07R08R09R11R12R14R15R16R17R18R19R20R21R22R24
+        R26  0  0  0  0  0  0  0  0  0  0  0  0  0  0  0  0
+          0  0  0  0  0  0  0  0  0  0  0  0  0  0  0  0  0
++         8  8  7  7  8  8  7  7  7  7  7  7  7  8  6  9  8
++         7  8  8  7  7  8  7  6  8  8  8  7  7  8  8  8  7
++         7  8  8  8  8  9  9  9  9  9  8  8  8 10  7  9  7
++         9  0  0  0  0  0  0  0  0  0  0  0  0  0  0  0  0
++         0  0  0  0  0  0  0  0  0  0  0  0  0  0  0  0  0
%c M  cc GPS ccc cccc cccc cccc cccc ccccc ccccc ccccc ccccc
%c cc cc ccc ccc cccc cccc cccc cccc ccccc ccccc ccccc ccccc
%f  0.0000000  0.000000000  0.00000000000  0.000000000000000
%f  0.0000000  0.000000000  0.00000000000  0.000000000000000
%i    0    0    0    0      0      0      0      0         0
%i    0    0    0    0      0      0      0      0         0
/* IAC                                ULTRA-RAPID PREDICTION
/* S/V CLOCKS ARE ALIGNED TO GNSS TIME                      
/* G:C1WC2W R:C1PC2P E:C1XC5X C:C2IC6I J:C1CC2S             
/* PCV:IGS20_2317 OL/AL:FES2004  NONE     YN ORB:CoN CLK:CoN
*  2024 12 11 23  0  0.00000000
PG02  13894.830305 -17110.905362  15011.180869   -294.182569
PG03  20638.702985 -12561.413681 -11066.178491    622.323396
PG04  10248.406667 -11124.910869 -21810.360812    494.325454
PG05 -25836.929816   4736.632122  -4339.790102   -195.728640
PG06  -7592.718044 -17186.822338 -18650.575907    -37.050671
PG07   6134.274693 -25566.897585   1539.929769    -15.952580
PG08  18703.623004   -790.861183  18883.870504    436.191706
PG09   1311.376972 -17933.118446 -19615.718498    483.022615
PG10  11014.490974  11817.910661  21379.429687   -230.690619
PG11 -14522.306670  -4128.007752 -21809.219553   -752.517425
PG12 -23403.914473   9856.482057  -7989.087145   -557.774848
PG13 -19567.594447  -9160.151725  15373.206943    689.598030
PG14  -6813.843207 -14303.151844  21384.064031    558.261008
PG15 -18107.432856   3540.684354  18636.546637    238.454261
PG16  25404.946534   2008.638879  -8615.972662   -105.659360
PG17 -11539.361800 -22400.383073   8476.478962    523.007369
PG18  -5273.472081  25658.525886   3608.003478   -660.400861
PG19 -17697.146678 -20013.236673  -2236.005837    572.911226
PG20 -21681.396812  -1818.672768 -15054.357844    367.970518
PG21  15412.370053 -10274.189565  18982.996779     95.268600
PG22 -14340.023914 -11513.098898  19441.908353    -85.727536
PG23  -4698.504325  15754.247516  20846.142926    381.610053
PG24 -14275.218372  15703.071719  15255.273274   -474.204520
PG25 -12127.895967  16217.609880 -17403.680883    498.197155
PG26  19079.042119   7151.164741 -17413.697488     -5.426738
PG27  21629.663693  10198.692442  11706.053468    -34.259390
PG28   7524.657569  18931.244770 -17057.265078   -505.474657
PG29  -2813.204067  17686.706047 -19616.972704   -556.721628
PG30  -2554.502312 -23503.835209  11981.631889   -263.308059
PG31  13148.917012   8990.894376 -21452.659891   -220.152992
PG32  15668.687149  20996.479367   5225.405438   -560.510248
PR01  21177.597713   2076.061079 -14061.786544    107.446706
PR02   8147.457638  -7793.994431 -22843.501655    -39.178901
PR03  -9810.226920 -14306.250843 -18627.630957    113.062242
PR04 -21567.978136 -12849.046829  -4424.548776    268.015335
PR05 -21932.599539  -4596.287157  12167.304004    142.049827
PR07  10210.977679  14427.888764  18456.290421     96.753623
PR08  21775.794731  12639.705963   4286.959380     -6.125994
PR09 -17268.706044  17338.228849  -7333.595611    225.690411
PR11  10750.653343   5480.116606 -22465.027339      4.898825
PR12  21527.889290  -8919.353764 -10375.025847     48.305177
PR14   3776.608185 -14841.705211  20398.846561     27.404010
PR15 -12276.160686  -4334.675167  21948.963620     73.269237
PR16 -21444.972084   8922.048056  10586.541575     31.545840
PR17  -2893.988742 -25262.955104  -2273.745514    147.712085
PR18  -8748.078405 -16824.628050 -17012.009821    176.339446
PR19 -10450.440918  -2276.375995 -23149.404259   -301.576114
PR20  -6384.053643  19337.037384 -15370.772978   -123.097544
PR21   2158.177295  25374.518390   1189.008212   -158.759316
PR22   9059.444143  15953.889733  17759.304664    -38.507740
PR24   5575.615821 -19964.057048  14903.764098    -83.678608
PR26  21063.031095  13041.467314   6062.091786   -132.826753
*  2024 12 11 23 15  0.00000000
PG02  13785.268799 -15339.239138  16992.930090   -294.174626
PG03  21737.754611 -12698.070296  -8449.155648    622.331545
PG04  11983.254114  -9330.572391 -21781.008339    494.331045
PG05 -25302.013344   4342.422654  -7119.272004   -195.729590
PG06  -6954.678876 -19134.567689 -16919.599528    -37.076639
PG07   6436.401876 -25445.775235  -1320.848634    -15.951314
PG08  20168.138688    699.902746  17368.227765    436.199943
PG09   3065.435836 -16457.142113 -20695.226996    483.037314
PG10   8689.421413  12499.664268  22030.528935   -230.704371
PG11 -13799.276149  -6517.736150 -21700.781811   -752.517829
PG12 -24163.761372   9772.274538  -5264.640624   -557.776928
PG13 -20459.141770 -10570.700904  13207.460930    689.599350
PG14  -4445.740386 -14936.611189  21552.961415    558.267940
PG15 -19766.498221   2168.475437  17155.955309    238.458412
PG16  24388.936098   2399.364274 -11141.741239   -105.650700
PG17 -10653.345403 -21762.213291  11052.651706    522.993077
PG18  -5563.244989  25834.885715    726.764048   -660.400532
PG19 -17586.769327 -20206.820939    601.238353    572.915057
PG20 -20104.486581  -2808.791522 -16971.128026    367.970234
PG21  15234.099463  -8071.006581  20272.960683     95.268269
PG22 -12176.670350 -12040.252758  20613.937873    -85.729762
PG23  -6929.882334  16367.216476  19698.228527    381.617030
PG24 -14239.862588  13738.094403  17061.946622   -474.201812
PG25 -13941.587300  16574.617173 -15550.221637    498.196797
PG26  17228.536006   8026.402490 -18878.722149     -5.439294
PG27  22378.837834  11189.887319   9229.939016    -34.259113
PG28   6967.221577  20692.673850 -15138.343582   -505.484389
PG29  -4413.807640  16031.402272 -20726.773500   -556.718835
PG30  -1970.729862 -24621.677502   9547.944937   -263.300762
PG31  12446.895216  11258.377535 -20750.004101   -220.152316
PG32  14994.238956  20657.946893   7942.166270   -560.504860
PR01  22681.899034   2544.581750 -11383.270612    107.447970
PR02  10705.339939  -6687.728953 -22135.071616    -39.178706
PR03  -7628.789398 -13259.962036 -20345.202092    113.063029
PR04 -20962.645191 -12382.958827  -7545.092993    268.017027
PR05 -23206.709580  -4996.326831   9305.374188    142.050388
PR07   8072.670023  13385.865910  20215.430750     96.754306
PR08  21189.903175  12200.879394   7401.077482     -6.125951
PR09 -17771.028459  17855.871568  -4258.872049    225.692448
PR11   8498.937724   7151.568530 -22955.738605      4.897915
PR12  20295.493131  -8142.663759 -13126.650990     48.305651
PR14   5661.329268 -16350.162258  18740.259973     27.404117
PR15 -10052.899290  -5953.867628  22687.815825     73.269032
PR16 -20185.761660   8143.462167  13331.589522     31.546175
PR17  -3090.176697 -25326.145808    952.028363    147.715118
PR18  -9072.758267 -18764.824637 -14648.036143    176.341221
PR19 -10659.856440  -5097.869669 -22598.671317   -301.577571
PR20  -6350.960589  17289.071167 -17649.559065   -123.097990
PR21   2347.523158  25301.846470  -2047.600683   -158.762138
PR22   9306.274502  17989.906195  15544.810388    -38.519240
PR24   5681.328195 -17987.841314  17204.493274    -83.679837
PR26  20268.364872  12525.305639   9106.263121   -132.826396
EOF
